DELTA 2 R/B(1)          
1 20453U 90008B   26099.00395284  .00056721  00000+0  57829-3 0  9992
2 20453  35.6040 335.2939 0076144 184.3872 175.6203 15.60285686930860
COSMOS 2058             
1 20465U 90010A   26099.16762373  .00003513  00000+0  20497-3 0  9994
2 20465  82.4725  17.3998 0008580 221.6279 138.4299 15.11628750946847
SL-14 R/B               
1 20466U 90010B   26098.90272095  .00000470  00000+0  54006-4 0  9996
2 20466  82.5015 239.0026 0019386 196.2574 163.8022 14.83600745932963
SL-14 R/B               
1 20511U 90018B   26099.21953785  .00000424  00000+0  50194-4 0  9995
2 20511  82.5244 194.5622 0016007 356.8166   3.2944 14.82176713927105
HST                     
1 20580U 90037B   26098.95291617  .00006044  00000+0  19457-3 0  9991
2 20580  28.4725 193.4783 0002369 100.9293 259.1569 15.29991109777952
SL-16 R/B               
1 20625U 90046B   26098.81186350 -.00000133  00000+0 -43843-4 0  9995
2 20625  70.9994 234.6468 0016610 260.6288  99.2957 14.15019118852652
COSMOS 2084             
1 20663U 90055A   26099.07157651  .00002145  00000+0  16071-3 0  9993
2 20663  62.7900 231.9384 0012174 200.9495 159.1109 15.05842876940899
SL-6 R/B(2)             
1 20666U 90055D   26099.16254039  .00001316  00000+0  10929-3 0  9999
2 20666  62.7820 150.2118 0029815 353.6562   6.4156 15.03745192942778
SL-8 R/B                
1 20775U 90078B   26099.07340427  .00009746  00000+0  28817-3 0  9992
2 20775  82.9045 223.9638 0356974 271.4083  84.6277 14.89948203813827
SL-8 R/B                
1 21088U 91006B   26099.20426971  .00000110  00000+0  95659-4 0  9991
2 21088  82.9425 147.3570 0021226 312.1382 108.8447 13.77499828768271
OKEAN-3                 
1 21397U 91039A   26098.99911001  .00002081  00000+0  14455-3 0  9991
2 21397  82.5158 307.4714 0013330 224.2103 135.8060 15.04994982869594
COSMOS 2151             
1 21422U 91042A   26099.16556796  .00002359  00000+0  18621-3 0  9997
2 21422  82.4964  54.2709 0011305 323.6934  36.3522 15.00250759867762
SL-14 R/B               
1 21423U 91042B   26099.21157879  .00000432  00000+0  51494-4 0  9999
2 21423  82.4960 191.5697 0018104 137.3613 222.9010 14.81862140857594
ERS-1                   
1 21574U 91050A   26099.00388429  .00000270  00000+0  10072-3 0  9995
2 21574  98.7854 117.9977 0033058 111.7839 248.6871 14.39474062820097
ARIANE 40 R/B           
1 21610U 91050F   26099.12142428  .00000252  00000+0  87978-4 0  9996
2 21610  98.1950 150.2062 0002821   7.4809 352.6424 14.42917313823386
INTERCOSMOS 25          
1 21819U 91086A   26098.95112789  .00000776  00000+0  14593-3 0  9996
2 21819  82.6001 291.7099 1486112  51.7249 320.8387 12.12105481500357
SL-8 R/B                
1 21876U 92008B   26098.90960187  .00000045  00000+0  30447-4 0  9998
2 21876  82.9251 245.2934 0035604  51.8187  59.9548 13.75970080713573
SL-8 R/B                
1 21938U 92020B   26099.08838203  .00000001  00000+0 -14844-4 0  9990
2 21938  82.9282 131.1876 0028336 210.4707 166.9983 13.75550513705319
USA 81                  
1 21949U 92023A   26099.04680656  .00000153  00000+0  49388-4 0  9996
2 21949  85.0036 113.9189 0001367  74.5537 285.5807 14.32378372 99136
COSMOS 2219             
1 22219U 92076A   26099.00911820 -.00000072  00000+0 -13089-4 0  9992
2 22219  71.0596 314.6907 0017521 160.3521 199.8280 14.14088064722666
SL-16 R/B               
1 22220U 92076B   26099.19643620  .00000156  00000+0  10174-3 0  9996
2 22220  70.9977 124.1143 0011177  40.9130  24.4495 14.16863191726158
COSMOS 2221             
1 22236U 92080A   26099.13229806  .00001826  00000+0  15873-3 0  9994
2 22236  82.5023 249.9108 0015724  90.8823 269.4201 14.96343007785347
SL-16 R/B               
1 22285U 92093B   26098.98624439 -.00000217  00000+0 -86954-4 0  9999
2 22285  71.0210 300.6669 0006625 264.1769  95.8599 14.15455212717444
COSMOS 2228             
1 22286U 92094A   26099.12822873  .00002233  00000+0  18950-3 0  9998
2 22286  82.5200 208.1684 0017648 195.1181 164.9516 14.97363116780615
SL-16 R/B               
1 22566U 93016B   26099.10040737  .00000248  00000+0  15190-3 0  9990
2 22566  71.0070 151.3139 0012512 275.6229  84.3467 14.15311825706472
COSMOS 2242             
1 22626U 93024A   26099.12370331  .00002413  00000+0  20868-3 0  9998
2 22626  82.5183 237.5986 0015858 198.3115 161.7539 14.96696160784944
SL-16 R/B               
1 22803U 93059B   26099.03853476  .00000254  00000+0  14954-3 0  9999
2 22803  70.9902 307.1289 0016749 171.3100 188.8317 14.17237004683837
ARIANE 40 R/B           
1 22830U 93061H   26099.14452116  .00000170  00000+0  78201-4 0  9993
2 22830  98.4864 167.4228 0010662 187.8284 172.2735 14.32878235698462
COSMOS 2278             
1 23087U 94023A   26099.00889536  .00000153  00000+0  10471-3 0  9997
2 23087  71.0502 111.6649 0009504 329.5742  30.4828 14.14376072649093
SL-16 R/B               
1 23088U 94023B   26099.18305803 -.00000054  00000+0 -34784-5 0  9994
2 23088  71.0032   6.8485 0005657 259.5774 100.4711 14.15020470650402
SL-16 R/B               
1 23343U 94074B   26099.02048993  .00000376  00000+0  56908-4 0  9997
2 23343  97.7062 128.6036 0007918 117.1969 272.8631 14.79444126691730
SL-16 R/B               
1 23405U 94077B   26098.94078644 -.00000131  00000+0 -42513-4 0  9993
2 23405  70.9813 288.8466 0001356 178.9375 181.1751 14.15566809620514
ARIANE 40+ R/B          
1 23561U 95021B   26099.17934425  .00000283  00000+0  10414-3 0  9990
2 23561  98.4447 170.2410 0007636  57.8865 327.9474 14.39795809623632
SL-16 R/B               
1 23705U 95058B   26099.01993249  .00000184  00000+0  11846-3 0  9992
2 23705  71.0186 116.5787 0010456  70.3589 289.8661 14.15498915572141
SL-16 R/B               
1 24298U 96051B   26099.19410063  .00000053  00000+0  55298-4 0  9996
2 24298  70.7579 110.6732 0012843  97.1219 263.1361 14.12424284525959
ORBVIEW 2 (SEASTAR)     
1 24883U 97037A   26099.01685557  .00000276  00000+0  11229-3 0  9996
2 24883  98.8620 264.1407 0001813   0.9028 359.2160 14.35517516512828
SL-16 R/B               
1 25400U 98043G   26099.11224745  .00000053  00000+0  41210-4 0  9996
2 25400  98.8302  52.7011 0008813 288.7293  71.2929 14.26057145443329
SL-16 R/B               
1 25407U 98045B   26099.01595831  .00000266  00000+0  15819-3 0  9992
2 25407  71.0087 117.7999 0008472 324.5675  35.4884 14.16195639431396
ISS (ZARYA)             
1 25544U 98067A   26098.97303556  .00006802  00000+0  13221-3 0  9990
2 25544  51.6330 282.6294 0006365 289.6160  70.4141 15.48838774561021
CZ-4B R/B               
1 25732U 99025C   26099.06556976  .00000031  00000+0  35733-4 0  9992
2 25732  98.6563 142.6186 0036005 257.0648 132.5520 14.18271662392473
OKEAN-O                 
1 25860U 99039A   26099.13607542  .00000527  00000+0  75837-4 0  9992
2 25860  97.9381 158.7084 0000996 111.3812 248.7507 14.80386334438899
SL-16 R/B               
1 25861U 99039B   26099.08736791  .00000476  00000+0  67003-4 0  9995
2 25861  97.9902 158.1286 0015417 154.2235 205.9749 14.81775581441362
DELTA 2 R/B             
1 25876U 99041E   26098.95220961  .00000572  00000+0  13203-3 0  9995
2 25876  51.7607 180.3870 0502624  77.6709 288.0002 14.11906830367300
HELIOS 1B               
1 25977U 99064A   26099.18086756  .00001275  00000+0  14590-3 0  9991
2 25977  98.1658   2.3165 0001203  40.5304 319.6001 14.87824366689796
TERRA                   
1 25994U 99068A   26099.18863844  .00000430  00000+0  96530-4 0  9992
2 25994  97.9531 151.4484 0003668  89.4229 317.2379 14.61049370399535
SL-16 R/B               
1 26070U 00006B   26099.18056336 -.00000135  00000+0 -44427-4 0  9994
2 26070  71.0046  33.7222 0014953 141.7473 218.4713 14.15831274352870
TITAN 4B R/B            
1 26474U 00047B   26099.10605669  .00002872  00000+0  18211-3 0  9997
2 26474  67.9893 314.9648 0040917   0.1630 359.9525 15.09841278397500
ENVISAT                 
1 27386U 02009A   26099.12778925  .00000107  00000+0  48444-4 0  9999
2 27386  98.3775  52.0101 0001166  83.0694 295.0781 14.39048132263558
IDEFIX & ARIANE 42P R/B 
1 27422U 02021B   26099.12057142  .00000248  00000+0  11064-3 0  9998
2 27422  98.5901  37.3697 0012959  96.8712 263.3946 14.31048107248371
AQUA                    
1 27424U 02022A   26099.20795322  .00000972  00000+0  20354-3 0  9995
2 27424  98.4224  67.1410 0001588 112.2435 306.1511 14.62051325273197
CZ-4B R/B               
1 27432U 02024C   26099.20027272  .00000028  00000+0  37309-4 0  9999
2 27432  98.8776 152.4440 0049141 296.8943 100.0032 14.14553354233554
MIDORI II (ADEOS-II)    
1 27597U 02056A   26099.11550962  .00000284  00000+0  12930-3 0  9999
2 27597  98.7819  57.8137 0000156  37.8843 322.2350 14.29309722214643
H-2A R/B                
1 27601U 02056E   26099.12438110  .00000299  00000+0  11903-3 0  9991
2 27601  98.3253  58.3413 0071390  71.2243 299.2256 14.33783549218475
CZ-4B R/B               
1 28059U 03049C   26098.98497215  .00000302  00000+0  80757-4 0  9995
2 28059  98.6899  95.0843 0048896 138.2423 222.2521 14.55048660191008
CZ-2C R/B               
1 28222U 04012C   26099.14489466  .00046370  00000+0  40869-3 0  9990
2 28222  97.7153 167.4019 0013867 192.3745 167.7177 15.68482610209046
SL-16 R/B               
1 28353U 04021B   26099.14628591  .00000244  00000+0  15161-3 0  9996
2 28353  71.0013 168.5797 0005802 330.6404  29.4392 14.14603399127147
CZ-4B R/B               
1 28415U 04035C   26099.07246438  .00005779  00000+0  20119-3 0  9995
2 28415  97.3448 132.9538 0030660 218.0468 141.8607 15.29623095184554
CZ-2C R/B               
1 28480U 04046B   26099.19721239  .00000183  00000+0  82575-4 0  9998
2 28480  98.1972  12.2800 0140519  64.8668 296.7017 14.27005028112859
ARIANE 5 R/B            
1 28499U 04049H   26099.01527454  .00000937  00000+0  10979-3 0  9990
2 28499  98.2672 268.6172 0082850 252.5485 106.6659 14.85328408150297
